{"type": "FeatureCollection", "features": [ {"type": "Feature", "properties": {"norad_id": 24936, "name": "AMC-3", "group": "active", "lat": -1.0889124191943562, "lon": 58.051197971425964, "alt_km": 35799.20833239543, "timestamp": "2025-12-01T03:58:49.239109+00:00", "meta": {"OBJECT_NAME": "AMC-3", "OBJECT_ID": "1997-050A", "EPOCH": "2025-11-30T03:13:42.083040", "MEAN_MOTION": 1.0027136, "ECCENTRICITY": 0.00032036, "INCLINATION": 7.6568, "RA_OF_ASC_NODE": 66.3479, "ARG_OF_PERICENTER": 191.6945, "MEAN_ANOMALY": 147.6535, "EPHEMERIS_TYPE": 0, "CLASSIFICATION_TYPE": "U", "NORAD_CAT_ID": 24936, "ELEMENT_SET_NO": 999, "REV_AT_EPOCH": 5043, "BSTAR": 0, "MEAN_MOTION_DOT": -2.41e-06, "MEAN_MOTION_DDOT": 0, "GROUP": "active"}, "tle": {"line1": "1 24936U 97050A   25334.13451485 -.00000241  00000+0  00000+0 0  9999", "line2": "2 24936   7.6568  66.3479 0003203 191.6945 147.6535  1.00271360 50439"}}, "geometry": {"type": "Point", "coordinates": [58.051197971425964, -1.0889124191943562]}}, {"type": "Feature", "properties": {"norad_id": 25019, "name": "USA 134", "group": "active", "lat": -1.1420012882271806, "lon": 17.988611991381816, "alt_km": 35789.25399206528, "timestamp": "2025-12-01T03:58:49.239135+00:00", "meta": {"OBJECT_NAME": "USA 134", "OBJECT_ID": "1997-065A", "EPOCH": "2025-11-30T04:44:55.845312", "MEAN_MOTION": 1.00269944, "ECCENTRICITY": 0.00059841, "INCLINATION": 12.5462, "RA_OF_ASC_NODE": 23.1815, "ARG_OF_PERICENTER": 259.2687, "MEAN_ANOMALY": 105.9485, "EPHEMERIS_TYPE": 0, "CLASSIFICATION_TYPE": "U", "NORAD_CAT_ID": 25019, "ELEMENT_SET_NO": 999, "REV_AT_EPOCH": 3096, "BSTAR": 0, "MEAN_MOTION_DOT": -4.8e-07, "MEAN_MOTION_DDOT": 0, "GROUP": "active"}, "tle": {"line1": "1 25019U 97065A   25334.19786858 -.00000048  00000+0  00000+0 0  9994", "line2": "2 25019  12.5462  23.1815 0005984 259.2687 105.9485  1.00269944 30969"}}, "geometry": {"type": "Point", "coordinates": [17.988611991381816, -1.1420012882271806]}}, {"type": "Feature", "properties": {"norad_id": 25118, "name": "ORBCOMM FM06", "group": "active", "lat": 39.61575256777787, "lon": -18.622169010853547, "alt_km": 730.4893041097639, "timestamp": "2025-12-01T03:58:49.239148+00:00", "meta": {"OBJECT_NAME": "ORBCOMM FM06", "OBJECT_ID": "1997-084G", "EPOCH": "2025-11-30T15:12:24.539904", "MEAN_MOTION": 14.46793476, "ECCENTRICITY": 0.0003017, "INCLINATION": 45.0138, "RA_OF_ASC_NODE": 288.0566, "ARG_OF_PERICENTER": 321.499, "MEAN_ANOMALY": 208.0897, "EPHEMERIS_TYPE": 0, "CLASSIFICATION_TYPE": "U", "NORAD_CAT_ID": 25118, "ELEMENT_SET_NO": 999, "REV_AT_EPOCH": 46562, "BSTAR": 0.00059562, "MEAN_MOTION_DOT": 2.033e-05, "MEAN_MOTION_DDOT": 0, "GROUP": "active"}, "tle": {"line1": "1 25118U 97084G   25334.63361736  .00002033  00000+0  59562-3 0  9994", "line2": "2 25118  45.0138 288.0566 0003017 321.4990 208.0897 14.46793476465622"}}, "geometry": {"type": "Point", "coordinates": [-18.622169010853547, 39.61575256777787]}}, {"type": "Feature", "properties": {"norad_id": 25153, "name": "INMARSAT 3-F5", "group": "active", "lat": 3.2941154058569118, "lon": 75.77400024015355, "alt_km": 35807.15235462124, "timestamp": "2025-12-01T03:58:49.239160+00:00", "meta": {"OBJECT_NAME": "INMARSAT 3-F5", "OBJECT_ID": "1998-006B", "EPOCH": "2025-11-30T03:18:49.093344", "MEAN_MOTION": 1.00271629, "ECCENTRICITY": 0.00050366, "INCLINATION": 9.2461, "RA_OF_ASC_NODE": 55.2063, "ARG_OF_PERICENTER": 198.8953, "MEAN_ANOMALY": 170.9342, "EPHEMERIS_TYPE": 0, "CLASSIFICATION_TYPE": "U", "NORAD_CAT_ID": 25153, "ELEMENT_SET_NO": 999, "REV_AT_EPOCH": 10190, "BSTAR": 0, "MEAN_MOTION_DOT": -2.72e-06, "MEAN_MOTION_DDOT": 0, "GROUP": "active"}, "tle": {"line1": "1 25153U 98006B   25334.13806821 -.00000272  00000+0  00000+0 0  9995", "line2": "2 25153   9.2461  55.2063 0005036 198.8953 170.9342  1.00271629101903"}}, "geometry": {"type": "Point", "coordinates": [75.77400024015355, 3.2941154058569118]}}, {"type": "Feature", "properties": {"norad_id": 25159, "name": "ORBCOMM FM04", "group": "active", "lat": 45.99694720413268, "lon": -38.33469942538617, "alt_km": 799.7716009602755, "timestamp": "2025-12-01T03:58:49.239171+00:00", "meta": {"OBJECT_NAME": "ORBCOMM FM04", "OBJECT_ID": "1998-007C", "EPOCH": "2025-11-30T15:39:42.969024", "MEAN_MOTION": 14.35215659, "ECCENTRICITY": 0.0041809, "INCLINATION": 107.9638, "RA_OF_ASC_NODE": 120.9817, "ARG_OF_PERICENTER": 312.0943, "MEAN_ANOMALY": 47.6645, "EPHEMERIS_TYPE": 0, "CLASSIFICATION_TYPE": "U", "NORAD_CAT_ID": 25159, "ELEMENT_SET_NO": 999, "REV_AT_EPOCH": 44810, "BSTAR": 0.00046738, "MEAN_MOTION_DOT": 1.219e-05, "MEAN_MOTION_DDOT": 0, "GROUP": "active"}, "tle": {"line1": "1 25159U 98007C   25334.65258066  .00001219  00000+0  46738-3 0  9994", "line2": "2 25159 107.9638 120.9817 0041809 312.0943  47.6645 14.35215659448100"}}, "geometry": {"type": "Point", "coordinates": [-38.33469942538617, 45.99694720413268]}}, {"type": "Feature", "properties": {"norad_id": 25160, "name": "CELESTIS-02 & TAURUS R/B", "group": "active", "lat": 15.560164430753806, "lon": 117.72085626161096, "alt_km": 790.3996632776152, "timestamp": "2025-12-01T03:58:49.239181+00:00", "meta": {"OBJECT_NAME": "CELESTIS-02 & TAURUS R/B", "OBJECT_ID": "1998-007D", "EPOCH": "2025-11-30T20:48:26.099136", "MEAN_MOTION": 14.22407824, "ECCENTRICITY": 0.0059947, "INCLINATION": 108.0095, "RA_OF_ASC_NODE": 291.9205, "ARG_OF_PERICENTER": 112.6113, "MEAN_ANOMALY": 320.4132, "EPHEMERIS_TYPE": 0, "CLASSIFICATION_TYPE": "U", "NORAD_CAT_ID": 25160, "ELEMENT_SET_NO": 999, "REV_AT_EPOCH": 44231, "BSTAR": 9.3561e-05, "MEAN_MOTION_DOT": 8.3e-07, "MEAN_MOTION_DDOT": 0, "GROUP": "active"}, "tle": {"line1": "1 25160U 98007D   25334.86696874  .00000083  00000+0  93561-4 0  9997", "line2": "2 25160 108.0095 291.9205 0059947 112.6113 320.4132 14.22407824442319"}}, "geometry": {"type": "Point", "coordinates": [117.72085626161096, 15.560164430753806]}}, {"type": "Feature", "properties": {"norad_id": 25398, "name": "WESTPAC", "group": "active", "lat": -0.09540345138890136, "lon": 131.74355355703798, "alt_km": 818.5332614745048, "timestamp": "2025-12-01T03:58:49.239191+00:00", "meta": {"OBJECT_NAME": "WESTPAC", "OBJECT_ID": "1998-043E", "EPOCH": "2025-11-30T20:23:15.269856", "MEAN_MOTION": 14.23037026, "ECCENTRICITY": 0.0002307, "INCLINATION": 98.9929, "RA_OF_ASC_NODE": 311.4357, "ARG_OF_PERICENTER": 72.9272, "MEAN_ANOMALY": 287.2158, "EPHEMERIS_TYPE": 0, "CLASSIFICATION_TYPE": "U", "NORAD_CAT_ID": 25398, "ELEMENT_SET_NO": 999, "REV_AT_EPOCH": 42273, "BSTAR": 2.1571e-05, "MEAN_MOTION_DOT": 2e-08, "MEAN_MOTION_DDOT": 0, "GROUP": "active"}, "tle": {"line1": "1 25398U 98043E   25334.84948229  .00000002  00000+0  21571-4 0  9995", "line2": "2 25398  98.9929 311.4357 0002307  72.9272 287.2158 14.23037026422739"}}, "geometry": {"type": "Point", "coordinates": [131.74355355703798, -0.09540345138890136]}}, {"type": "Feature", "properties": {"norad_id": 25415, "name": "ORBCOMM FM19", "group": "active", "lat": -24.1015063733186, "lon": 77.84981527882175, "alt_km": 764.6456183901455, "timestamp": "2025-12-01T03:58:49.239201+00:00", "meta": {"OBJECT_NAME": "ORBCOMM FM19", "OBJECT_ID": "1998-046C", "EPOCH": "2025-11-30T18:50:19.864032", "MEAN_MOTION": 14.38911611, "ECCENTRICITY": 0.0002137, "INCLINATION": 44.993, "RA_OF_ASC_NODE": 106.2589, "ARG_OF_PERICENTER": 53.4072, "MEAN_ANOMALY": 96.4079, "EPHEMERIS_TYPE": 0, "CLASSIFICATION_TYPE": "U", "NORAD_CAT_ID": 25415, "ELEMENT_SET_NO": 999, "REV_AT_EPOCH": 42819, "BSTAR": 0.00050254, "MEAN_MOTION_DOT": 1.42e-05, "MEAN_MOTION_DDOT": 0, "GROUP": "active"}, "tle": {"line1": "1 25415U 98046C   25334.78495213  .00001420  00000+0  50254-3 0  9995", "line2": "2 25415  44.9930 106.2589 0002137  53.4072  96.4079 14.38911611428197"}}, "geometry": {"type": "Point", "coordinates": [77.84981527882175, -24.1015063733186]}}, {"type": "Feature", "properties": {"norad_id": 25416, "name": "ORBCOMM FM20", "group": "active", "lat": 14.917887016636513, "lon": -85.18648294372011, "alt_km": 763.5727115232658, "timestamp": "2025-12-01T03:58:49.239211+00:00", "meta": {"OBJECT_NAME": "ORBCOMM FM20", "OBJECT_ID": "1998-046D", "EPOCH": "2025-11-30T18:54:25.706592", "MEAN_MOTION": 14.37617653, "ECCENTRICITY": 9.64e-05, "INCLINATION": 44.9929, "RA_OF_ASC_NODE": 112.0709, "ARG_OF_PERICENTER": 144.9322, "MEAN_ANOMALY": 215.1589, "EPHEMERIS_TYPE": 0, "CLASSIFICATION_TYPE": "U", "NORAD_CAT_ID": 25416, "ELEMENT_SET_NO": 999, "REV_AT_EPOCH": 42823, "BSTAR": 0.00038109, "MEAN_MOTION_DOT": 1.012e-05, "MEAN_MOTION_DDOT": 0, "GROUP": "active"}, "tle": {"line1": "1 25416U 98046D   25334.78779753  .00001012  00000+0  38109-3 0  9992", "line2": "2 25416  44.9929 112.0709 0000964 144.9322 215.1589 14.37617653428234"}}, "geometry": {"type": "Point", "coordinates": [-85.18648294372011, 14.917887016636513]}}, {"type": "Feature", "properties": {"norad_id": 25481, "name": "ORBCOMM FM27", "group": "active", "lat": -29.226526322236253, "lon": 161.49999172628281, "alt_km": 765.5609698525532, "timestamp": "2025-12-01T03:58:49.239221+00:00", "meta": {"OBJECT_NAME": "ORBCOMM FM27", "OBJECT_ID": "1998-053G", "EPOCH": "2025-11-30T16:30:57.599424", "MEAN_MOTION": 14.38606281, "ECCENTRICITY": 0.0001485, "INCLINATION": 45.0036, "RA_OF_ASC_NODE": 197.8084, "ARG_OF_PERICENTER": 18.3209, "MEAN_ANOMALY": 341.7693, "EPHEMERIS_TYPE": 0, "CLASSIFICATION_TYPE": "U", "NORAD_CAT_ID": 25481, "ELEMENT_SET_NO": 999, "REV_AT_EPOCH": 42164, "BSTAR": 0.00038137, "MEAN_MOTION_DOT": 1.036e-05, "MEAN_MOTION_DDOT": 0, "GROUP": "active"}, "tle": {"line1": "1 25481U 98053G   25334.68816666  .00001036  00000+0  38137-3 0  9993", "line2": "2 25481  45.0036 197.8084 0001485  18.3209 341.7693 14.38606281421647"}}, "geometry": {"type": "Point", "coordinates": [161.49999172628281, -29.226526322236253]}}]}